[{"OBJECT_NAME":"ONEWEB-0249","OBJECT_ID":"2021-060A","EPOCH":"2026-04-01T08:55:37.046784","MEAN_MOTION":13.16593515,"ECCENTRICITY":0.0001797,"INCLINATION":87.9039,"RA_OF_ASC_NODE":244.0447,"ARG_OF_PERICENTER":96.377,"MEAN_ANOMALY":263.7566,"EPHEMERIS_TYPE":0,"CLASSIFICATION_TYPE":"U","NORAD_CAT_ID":48967,"ELEMENT_SET_NO":999,"REV_AT_EPOCH":22950,"BSTAR":0.00011103,"MEAN_MOTION_DOT":5.5e-7,"MEAN_MOTION_DDOT":0},{"OBJECT_NAME":"ONEWEB-0250","OBJECT_ID":"2021-060B","EPOCH":"2026-04-01T09:44:16.139040","MEAN_MOTION":13.25829153,"ECCENTRICITY":0.0001939,"INCLINATION":87.9036,"RA_OF_ASC_NODE":242.0431,"ARG_OF_PERICENTER":67.8231,"MEAN_ANOMALY":292.311,"EPHEMERIS_TYPE":0,"CLASSIFICATION_TYPE":"U","NORAD_CAT_ID":48968,"ELEMENT_SET_NO":999,"REV_AT_EPOCH":23004,"BSTAR":9.756e-5,"MEAN_MOTION_DOT":5.6e-7,"MEAN_MOTION_DDOT":0},{"OBJECT_NAME":"ONEWEB-0252","OBJECT_ID":"2021-060D","EPOCH":"2026-04-01T09:40:05.171232","MEAN_MOTION":13.16595101,"ECCENTRICITY":0.0001792,"INCLINATION":87.9034,"RA_OF_ASC_NODE":244.0305,"ARG_OF_PERICENTER":107.4019,"MEAN_ANOMALY":252.7308,"EPHEMERIS_TYPE":0,"CLASSIFICATION_TYPE":"U","NORAD_CAT_ID":48970,"ELEMENT_SET_NO":999,"REV_AT_EPOCH":22955,"BSTAR":0.00016995,"MEAN_MOTION_DOT":7.8e-7,"MEAN_MOTION_DDOT":0},{"OBJECT_NAME":"ONEWEB-0253","OBJECT_ID":"2021-060E","EPOCH":"2026-04-01T09:24:06.216768","MEAN_MOTION":13.1659654,"ECCENTRICITY":0.0001798,"INCLINATION":87.9035,"RA_OF_ASC_NODE":244.0386,"ARG_OF_PERICENTER":97.6171,"MEAN_ANOMALY":262.5164,"EPHEMERIS_TYPE":0,"CLASSIFICATION_TYPE":"U","NORAD_CAT_ID":48971,"ELEMENT_SET_NO":999,"REV_AT_EPOCH":22948,"BSTAR":0.00012107,"MEAN_MOTION_DOT":5.9e-7,"MEAN_MOTION_DDOT":0},{"OBJECT_NAME":"ONEWEB-0254","OBJECT_ID":"2021-060F","EPOCH":"2026-04-01T09:37:48.679968","MEAN_MOTION":13.16594878,"ECCENTRICITY":0.0002038,"INCLINATION":87.9037,"RA_OF_ASC_NODE":244.0321,"ARG_OF_PERICENTER":93.9935,"MEAN_ANOMALY":266.1429,"EPHEMERIS_TYPE":0,"CLASSIFICATION_TYPE":"U","NORAD_CAT_ID":48972,"ELEMENT_SET_NO":999,"REV_AT_EPOCH":22948,"BSTAR":0.00021482,"MEAN_MOTION_DOT":9.5e-7,"MEAN_MOTION_DDOT":0},{"OBJECT_NAME":"ONEWEB-0255","OBJECT_ID":"2021-060G","EPOCH":"2026-04-01T08:43:05.454912","MEAN_MOTION":13.1659338,"ECCENTRICITY":0.0001935,"INCLINATION":87.9037,"RA_OF_ASC_NODE":244.0483,"ARG_OF_PERICENTER":96.9729,"MEAN_ANOMALY":263.1622,"EPHEMERIS_TYPE":0,"CLASSIFICATION_TYPE":"U","NORAD_CAT_ID":48973,"ELEMENT_SET_NO":999,"REV_AT_EPOCH":22955,"BSTAR":-3.9773e-6,"MEAN_MOTION_DOT":1.1e-7,"MEAN_MOTION_DDOT":0},{"OBJECT_NAME":"ONEWEB-0256","OBJECT_ID":"2021-060H","EPOCH":"2026-04-01T09:20:41.390016","MEAN_MOTION":13.1659559,"ECCENTRICITY":0.000167,"INCLINATION":87.9037,"RA_OF_ASC_NODE":244.0506,"ARG_OF_PERICENTER":103.2814,"MEAN_ANOMALY":256.8503,"EPHEMERIS_TYPE":0,"CLASSIFICATION_TYPE":"U","NORAD_CAT_ID":48974,"ELEMENT_SET_NO":999,"REV_AT_EPOCH":22952,"BSTAR":-3.5878e-5,"MEAN_MOTION_DOT":-1.0e-8,"MEAN_MOTION_DDOT":0},{"OBJECT_NAME":"ONEWEB-0257","OBJECT_ID":"2021-060J","EPOCH":"2026-04-01T10:07:26.595840","MEAN_MOTION":13.16595739,"ECCENTRICITY":0.0001907,"INCLINATION":87.9039,"RA_OF_ASC_NODE":244.0279,"ARG_OF_PERICENTER":100.906,"MEAN_ANOMALY":259.2286,"EPHEMERIS_TYPE":0,"CLASSIFICATION_TYPE":"U","NORAD_CAT_ID":48975,"ELEMENT_SET_NO":999,"REV_AT_EPOCH":22948,"BSTAR":0.00026748,"MEAN_MOTION_DOT":1.15e-6,"MEAN_MOTION_DDOT":0},{"OBJECT_NAME":"ONEWEB-0258","OBJECT_ID":"2021-060K","EPOCH":"2026-04-01T10:09:42.021792","MEAN_MOTION":13.16595111,"ECCENTRICITY":0.0001763,"INCLINATION":87.9038,"RA_OF_ASC_NODE":244.0388,"ARG_OF_PERICENTER":96.9466,"MEAN_ANOMALY":263.1866,"EPHEMERIS_TYPE":0,"CLASSIFICATION_TYPE":"U","NORAD_CAT_ID":48976,"ELEMENT_SET_NO":999,"REV_AT_EPOCH":22949,"BSTAR":-0.00081943,"MEAN_MOTION_DOT":-3.0e-6,"MEAN_MOTION_DDOT":0},{"OBJECT_NAME":"ONEWEB-0259","OBJECT_ID":"2021-060L","EPOCH":"2026-04-01T10:00:35.572896","MEAN_MOTION":13.16595663,"ECCENTRICITY":0.0001862,"INCLINATION":87.9039,"RA_OF_ASC_NODE":244.0394,"ARG_OF_PERICENTER":96.3273,"MEAN_ANOMALY":263.807,"EPHEMERIS_TYPE":0,"CLASSIFICATION_TYPE":"U","NORAD_CAT_ID":48977,"ELEMENT_SET_NO":999,"REV_AT_EPOCH":22952,"BSTAR":0.00023686,"MEAN_MOTION_DOT":1.03e-6,"MEAN_MOTION_DDOT":0},{"OBJECT_NAME":"ONEWEB-0260","OBJECT_ID":"2021-060M","EPOCH":"2026-04-01T09:48:02.773152","MEAN_MOTION":13.16592943,"ECCENTRICITY":0.0001729,"INCLINATION":87.9036,"RA_OF_ASC_NODE":244.0469,"ARG_OF_PERICENTER":113.2826,"MEAN_ANOMALY":246.8486,"EPHEMERIS_TYPE":0,"CLASSIFICATION_TYPE":"U","NORAD_CAT_ID":48978,"ELEMENT_SET_NO":999,"REV_AT_EPOCH":22950,"BSTAR":0.00043058,"MEAN_MOTION_DOT":1.77e-6,"MEAN_MOTION_DDOT":0},{"OBJECT_NAME":"ONEWEB-0261","OBJECT_ID":"2021-060N","EPOCH":"2026-04-01T09:04:43.635648","MEAN_MOTION":13.16593672,"ECCENTRICITY":0.000211,"INCLINATION":87.9031,"RA_OF_ASC_NODE":244.0513,"ARG_OF_PERICENTER":101.7044,"MEAN_ANOMALY":258.4323,"EPHEMERIS_TYPE":0,"CLASSIFICATION_TYPE":"U","NORAD_CAT_ID":48979,"ELEMENT_SET_NO":999,"REV_AT_EPOCH":22955,"BSTAR":-7.4022e-5,"MEAN_MOTION_DOT":-1.5e-7,"MEAN_MOTION_DDOT":0},{"OBJECT_NAME":"ONEWEB-0262","OBJECT_ID":"2021-060P","EPOCH":"2026-04-01T08:36:14.609952","MEAN_MOTION":13.16595654,"ECCENTRICITY":0.00019,"INCLINATION":87.9038,"RA_OF_ASC_NODE":244.039,"ARG_OF_PERICENTER":91.0918,"MEAN_ANOMALY":269.0431,"EPHEMERIS_TYPE":0,"CLASSIFICATION_TYPE":"U","NORAD_CAT_ID":48980,"ELEMENT_SET_NO":999,"REV_AT_EPOCH":22951,"BSTAR":2.0162e-5,"MEAN_MOTION_DOT":2.1e-7,"MEAN_MOTION_DDOT":0},{"OBJECT_NAME":"ONEWEB-0263","OBJECT_ID":"2021-060Q","EPOCH":"2026-04-01T09:21:50.433984","MEAN_MOTION":13.16594942,"ECCENTRICITY":0.0002131,"INCLINATION":87.9036,"RA_OF_ASC_NODE":244.0439,"ARG_OF_PERICENTER":98.2164,"MEAN_ANOMALY":261.9209,"EPHEMERIS_TYPE":0,"CLASSIFICATION_TYPE":"U","NORAD_CAT_ID":48981,"ELEMENT_SET_NO":999,"REV_AT_EPOCH":22948,"BSTAR":5.5941e-5,"MEAN_MOTION_DOT":3.4e-7,"MEAN_MOTION_DDOT":0},{"OBJECT_NAME":"ONEWEB-0264","OBJECT_ID":"2021-060R","EPOCH":"2026-04-01T10:15:25.976736","MEAN_MOTION":13.1659467,"ECCENTRICITY":0.0001905,"INCLINATION":87.9038,"RA_OF_ASC_NODE":244.0405,"ARG_OF_PERICENTER":105.6159,"MEAN_ANOMALY":254.5182,"EPHEMERIS_TYPE":0,"CLASSIFICATION_TYPE":"U","NORAD_CAT_ID":48982,"ELEMENT_SET_NO":999,"REV_AT_EPOCH":22949,"BSTAR":7.8567e-5,"MEAN_MOTION_DOT":4.3e-7,"MEAN_MOTION_DDOT":0},{"OBJECT_NAME":"ONEWEB-0266","OBJECT_ID":"2021-060T","EPOCH":"2026-04-01T08:56:45.271680","MEAN_MOTION":13.1659307,"ECCENTRICITY":0.0001711,"INCLINATION":87.9036,"RA_OF_ASC_NODE":244.0407,"ARG_OF_PERICENTER":97.1506,"MEAN_ANOMALY":262.9819,"EPHEMERIS_TYPE":0,"CLASSIFICATION_TYPE":"U","NORAD_CAT_ID":48984,"ELEMENT_SET_NO":999,"REV_AT_EPOCH":22947,"BSTAR":-0.00010924,"MEAN_MOTION_DOT":-2.9e-7,"MEAN_MOTION_DDOT":0},{"OBJECT_NAME":"ONEWEB-0267","OBJECT_ID":"2021-060U","EPOCH":"2026-04-01T09:12:43.583328","MEAN_MOTION":13.16594813,"ECCENTRICITY":0.000195,"INCLINATION":87.9035,"RA_OF_ASC_NODE":244.0347,"ARG_OF_PERICENTER":101.2548,"MEAN_ANOMALY":258.8802,"EPHEMERIS_TYPE":0,"CLASSIFICATION_TYPE":"U","NORAD_CAT_ID":48985,"ELEMENT_SET_NO":999,"REV_AT_EPOCH":22948,"BSTAR":2.175e-5,"MEAN_MOTION_DOT":2.1e-7,"MEAN_MOTION_DDOT":0},{"OBJECT_NAME":"ONEWEB-0268","OBJECT_ID":"2021-060V","EPOCH":"2026-04-01T10:16:33.666816","MEAN_MOTION":13.16595811,"ECCENTRICITY":0.0001741,"INCLINATION":87.9038,"RA_OF_ASC_NODE":244.0357,"ARG_OF_PERICENTER":101.9852,"MEAN_ANOMALY":258.1474,"EPHEMERIS_TYPE":0,"CLASSIFICATION_TYPE":"U","NORAD_CAT_ID":48986,"ELEMENT_SET_NO":999,"REV_AT_EPOCH":22975,"BSTAR":5.0541e-5,"MEAN_MOTION_DOT":3.2e-7,"MEAN_MOTION_DDOT":0},{"OBJECT_NAME":"ONEWEB-0269","OBJECT_ID":"2021-060W","EPOCH":"2026-04-01T09:49:11.956224","MEAN_MOTION":13.16595316,"ECCENTRICITY":0.000154,"INCLINATION":87.9026,"RA_OF_ASC_NODE":244.0509,"ARG_OF_PERICENTER":103.974,"MEAN_ANOMALY":256.1562,"EPHEMERIS_TYPE":0,"CLASSIFICATION_TYPE":"U","NORAD_CAT_ID":48987,"ELEMENT_SET_NO":999,"REV_AT_EPOCH":22952,"BSTAR":0.00024708,"MEAN_MOTION_DOT":1.07e-6,"MEAN_MOTION_DDOT":0},{"OBJECT_NAME":"ONEWEB-0270","OBJECT_ID":"2021-060X","EPOCH":"2026-04-01T10:14:16.950912","MEAN_MOTION":13.16595594,"ECCENTRICITY":0.000211,"INCLINATION":87.9039,"RA_OF_ASC_NODE":244.0378,"ARG_OF_PERICENTER":94.3184,"MEAN_ANOMALY":265.8188,"EPHEMERIS_TYPE":0,"CLASSIFICATION_TYPE":"U","NORAD_CAT_ID":48988,"ELEMENT_SET_NO":999,"REV_AT_EPOCH":22956,"BSTAR":0.0001579,"MEAN_MOTION_DOT":7.3e-7,"MEAN_MOTION_DDOT":0},{"OBJECT_NAME":"ONEWEB-0271","OBJECT_ID":"2021-060Y","EPOCH":"2026-04-01T09:56:02.472864","MEAN_MOTION":13.16593326,"ECCENTRICITY":0.0002022,"INCLINATION":87.9037,"RA_OF_ASC_NODE":244.0316,"ARG_OF_PERICENTER":99.1995,"MEAN_ANOMALY":260.9365,"EPHEMERIS_TYPE":0,"CLASSIFICATION_TYPE":"U","NORAD_CAT_ID":48989,"ELEMENT_SET_NO":999,"REV_AT_EPOCH":22956,"BSTAR":0.00021979,"MEAN_MOTION_DOT":9.7e-7,"MEAN_MOTION_DDOT":0},{"OBJECT_NAME":"ONEWEB-0272","OBJECT_ID":"2021-060Z","EPOCH":"2026-04-01T10:27:57.261024","MEAN_MOTION":13.16596731,"ECCENTRICITY":0.0001868,"INCLINATION":87.9038,"RA_OF_ASC_NODE":244.038,"ARG_OF_PERICENTER":108.3797,"MEAN_ANOMALY":251.7537,"EPHEMERIS_TYPE":0,"CLASSIFICATION_TYPE":"U","NORAD_CAT_ID":48990,"ELEMENT_SET_NO":999,"REV_AT_EPOCH":22951,"BSTAR":0.00013571,"MEAN_MOTION_DOT":6.5e-7,"MEAN_MOTION_DDOT":0},{"OBJECT_NAME":"ONEWEB-0273","OBJECT_ID":"2021-060AA","EPOCH":"2026-04-01T09:10:26.845824","MEAN_MOTION":13.16594424,"ECCENTRICITY":0.0001906,"INCLINATION":87.9036,"RA_OF_ASC_NODE":244.047,"ARG_OF_PERICENTER":97.7271,"MEAN_ANOMALY":262.4076,"EPHEMERIS_TYPE":0,"CLASSIFICATION_TYPE":"U","NORAD_CAT_ID":48991,"ELEMENT_SET_NO":999,"REV_AT_EPOCH":22948,"BSTAR":-0.00016475,"MEAN_MOTION_DOT":-5.0e-7,"MEAN_MOTION_DDOT":0},{"OBJECT_NAME":"ONEWEB-0274","OBJECT_ID":"2021-060AB","EPOCH":"2026-04-01T09:46:55.614432","MEAN_MOTION":13.16595298,"ECCENTRICITY":0.0001793,"INCLINATION":87.9027,"RA_OF_ASC_NODE":244.0528,"ARG_OF_PERICENTER":110.2342,"MEAN_ANOMALY":249.8982,"EPHEMERIS_TYPE":0,"CLASSIFICATION_TYPE":"U","NORAD_CAT_ID":48992,"ELEMENT_SET_NO":999,"REV_AT_EPOCH":22952,"BSTAR":0.00025804,"MEAN_MOTION_DOT":1.12e-6,"MEAN_MOTION_DDOT":0}]
